{
    "links": {
        "self": "http://www.neowsapp.com/rest/v1/neo/54073350?api_key=iIulBulltgU6a56xZRHN4H3l9WmuAYTsLGpBGhQ2"
    },
    "id": "54073350",
    "neo_reference_id": "54073350",
    "name": "(2020 TP7)",
    "designation": "2020 TP7",
    "nasa_jpl_url": "http://ssd.jpl.nasa.gov/sbdb.cgi?sstr=54073350",
    "absolute_magnitude_h": 19.91,
    "estimated_diameter": {
        "kilometers": {
            "estimated_diameter_min": 0.2770479727,
            "estimated_diameter_max": 0.6194981001
        },
        "meters": {
            "estimated_diameter_min": 277.0479727327,
            "estimated_diameter_max": 619.4981000589
        },
        "miles": {
            "estimated_diameter_min": 0.1721495759,
            "estimated_diameter_max": 0.3849381539
        },
        "feet": {
            "estimated_diameter_min": 908.9500708605,
            "estimated_diameter_max": 2032.4741465973
        }
    },
    "is_potentially_hazardous_asteroid": false,
    "close_approach_data": [
        {
            "close_approach_date": "2021-09-15",
            "close_approach_date_full": "2021-Sep-15 02:44",
            "epoch_date_close_approach": 1631673840000,
            "relative_velocity": {
                "kilometers_per_second": "37.3640329149",
                "kilometers_per_hour": "134510.518493698",
                "miles_per_hour": "83579.6052273758"
            },
            "miss_distance": {
                "astronomical": "0.0879042452",
                "lunar": "34.1947513828",
                "kilometers": "13150287.845877724",
                "miles": "8171209.9633876312"
            },
            "orbiting_body": "Merc"
        },
        {
            "close_approach_date": "2023-12-30",
            "close_approach_date_full": "2023-Dec-30 07:46",
            "epoch_date_close_approach": 1703922360000,
            "relative_velocity": {
                "kilometers_per_second": "19.9432509092",
                "kilometers_per_hour": "71795.7032730235",
                "miles_per_hour": "44611.0579587295"
            },
            "miss_distance": {
                "astronomical": "0.2593250115",
                "lunar": "100.8774294735",
                "kilometers": "38794469.358125505",
                "miles": "24105765.459941769"
            },
            "orbiting_body": "Earth"
        },
        {
            "close_approach_date": "2155-09-30",
            "close_approach_date_full": "2155-Sep-30 02:10",
            "epoch_date_close_approach": 5861556600000,
            "relative_velocity": {
                "kilometers_per_second": "38.5532932181",
                "kilometers_per_hour": "138791.8555853123",
                "miles_per_hour": "86239.8615996625"
            },
            "miss_distance": {
                "astronomical": "0.4856765926",
                "lunar": "188.9281945214",
                "kilometers": "72656183.761817762",
                "miles": "45146459.1204666356"
            },
            "orbiting_body": "Earth"
        },
        {
            "close_approach_date": "2157-12-24",
            "close_approach_date_full": "2157-Dec-24 21:58",
            "epoch_date_close_approach": 5932130280000,
            "relative_velocity": {
                "kilometers_per_second": "25.7606051676",
                "kilometers_per_hour": "92738.1786032534",
                "miles_per_hour": "57623.8976993382"
            },
            "miss_distance": {
                "astronomical": "0.0666343957",
                "lunar": "25.9207799273",
                "kilometers": "9968363.665457159",
                "miles": "6194053.9596164342"
            },
            "orbiting_body": "Earth"
        },
        {
            "close_approach_date": "2160-09-07",
            "close_approach_date_full": "2160-Sep-07 19:43",
            "epoch_date_close_approach": 6017485380000,
            "relative_velocity": {
                "kilometers_per_second": "25.3569584846",
                "kilometers_per_hour": "91285.0505446568",
                "miles_per_hour": "56720.9804342619"
            },
            "miss_distance": {
                "astronomical": "0.2961101255",
                "lunar": "115.1868388195",
                "kilometers": "44297444.060232685",
                "miles": "27525155.380613653"
            },
            "orbiting_body": "Earth"
        }
    ],
    "orbital_data": {
        "orbit_id": "2",
        "orbit_determination_date": "2020-10-19 08:22:51",
        "first_observation_date": "2020-10-15",
        "last_observation_date": "2020-10-19",
        "data_arc_in_days": 4,
        "observations_used": 25,
        "orbit_uncertainty": "8",
        "minimum_orbit_intersection": ".0664112",
        "jupiter_tisserand_invariant": "5.124",
        "epoch_osculation": "2459139.5",
        "eccentricity": ".7478720306836163",
        "semi_major_axis": "1.148165846751249",
        "inclination": "18.16973146319744",
        "ascending_node_longitude": "281.567674059854",
        "orbital_period": "449.3713324305218",
        "perihelion_distance": ".2894847233798187",
        "perihelion_argument": "297.4345287001213",
        "aphelion_distance": "2.006846970122679",
        "perihelion_time": "2459012.884412160756",
        "mean_anomaly": "101.4341777780747",
        "mean_motion": ".8011191947934515",
        "equinox": "J2000",
        "orbit_class": {
            "orbit_class_type": "APO",
            "orbit_class_description": "Near-Earth asteroid orbits which cross the Earth’s orbit similar to that of 1862 Apollo",
            "orbit_class_range": "a (semi-major axis) > 1.0 AU; q (perihelion) < 1.017 AU"
        }
    },
    "is_sentry_object": false
}